{
  "type": "FeatureCollection",
  "features": [
    {
      "type": "Feature",
      "properties": {
        "norad_id": 40115,
        "name": "WORLDVIEW-3 (WV-3)",
        "group": "resource",
        "lat": -56.468573743472156,
        "lon": 66.8222123273175,
        "alt_km": 619.8417097596657,
        "timestamp": "2025-12-08T10:52:02.606506+00:00",
        "meta_object_name": "WORLDVIEW-3 (WV-3)",
        "meta_object_id": "2014-048A",
        "meta_epoch": "2025-12-07T22:11:31.719552",
        "meta_mean_motion": 14.85492772,
        "meta_eccentricity": 0.00044154,
        "meta_inclination": 97.8618,
        "meta_ra_of_asc_node": 54.2656,
        "meta_arg_of_pericenter": 200.9038,
        "meta_mean_anomaly": 159.1997,
        "meta_ephemeris_type": 0,
        "meta_classification_type": "U",
        "meta_norad_cat_id": 40115,
        "meta_element_set_no": 999,
        "meta_rev_at_epoch": 61352,
        "meta_bstar": 0.0002014365,
        "meta_mean_motion_dot": 1.685e-05,
        "meta_mean_motion_ddot": 0,
        "tle_line1": "1 40115U 14048A   25341.92467268  .00001685  00000+0  20144-3 0  9990",
        "tle_line2": "2 40115  97.8618  54.2656 0004415 200.9038 159.1997 14.85492772613523"
      },
      "geometry": {
        "type": "Point",
        "coordinates": [
          66.8222123273175,
          -56.468573743472156
        ]
      }
    },
    {
      "type": "Feature",
      "properties": {
        "norad_id": 40118,
        "name": "GAOFEN-2",
        "group": "resource",
        "lat": -15.627969527589395,
        "lon": -140.6520554535154,
        "alt_km": 630.2760035234887,
        "timestamp": "2025-12-08T10:52:02.606516+00:00",
        "meta_object_name": "GAOFEN-2",
        "meta_object_id": "2014-049A",
        "meta_epoch": "2025-12-07T22:38:00.428064",
        "meta_mean_motion": 14.80594886,
        "meta_eccentricity": 0.00084176,
        "meta_inclination": 98.0392,
        "meta_ra_of_asc_node": 41.1031,
        "meta_arg_of_pericenter": 126.8081,
        "meta_mean_anomaly": 233.3904,
        "meta_ephemeris_type": 0,
        "meta_classification_type": "U",
        "meta_norad_cat_id": 40118,
        "meta_element_set_no": 999,
        "meta_rev_at_epoch": 61093,
        "meta_bstar": 0.0001861634,
        "meta_mean_motion_dot": 1.375e-05,
        "meta_mean_motion_ddot": 0,
        "tle_line1": "1 40118U 14049A   25341.94306051  .00001375  00000+0  18616-3 0  9995",
        "tle_line2": "2 40118  98.0392  41.1031 0008417 126.8081 233.3904 14.80594886610939"
      },
      "geometry": {
        "type": "Point",
        "coordinates": [
          -140.6520554535154,
          -15.627969527589395
        ]
      }
    },
    {
      "type": "Feature",
      "properties": {
        "norad_id": 40143,
        "name": "YAOGAN-21",
        "group": "resource",
        "lat": -35.96593796679831,
        "lon": -159.29340136774596,
        "alt_km": 507.9196720946038,
        "timestamp": "2025-12-08T10:52:02.606527+00:00",
        "meta_object_name": "YAOGAN-21",
        "meta_object_id": "2014-053A",
        "meta_epoch": "2025-12-07T22:53:17.788704",
        "meta_mean_motion": 15.23590538,
        "meta_eccentricity": 0.00100165,
        "meta_inclination": 97.1757,
        "meta_ra_of_asc_node": 25.4745,
        "meta_arg_of_pericenter": 56.4153,
        "meta_mean_anomaly": 303.804,
        "meta_ephemeris_type": 0,
        "meta_classification_type": "U",
        "meta_norad_cat_id": 40143,
        "meta_element_set_no": 999,
        "meta_rev_at_epoch": 62581,
        "meta_bstar": 0.00035911215,
        "meta_mean_motion_dot": 8.54e-05,
        "meta_mean_motion_ddot": 0,
        "tle_line1": "1 40143U 14053A   25341.95367811  .00008540  00000+0  35911-3 0  9998",
        "tle_line2": "2 40143  97.1757  25.4745 0010016  56.4153 303.8040 15.23590538625810"
      },
      "geometry": {
        "type": "Point",
        "coordinates": [
          -159.29340136774596,
          -35.96593796679831
        ]
      }
    },
    {
      "type": "Feature",
      "properties": {
        "norad_id": 40275,
        "name": "YAOGAN-22",
        "group": "resource",
        "lat": 17.129499995954546,
        "lon": 122.45764501898735,
        "alt_km": 1204.2810299252997,
        "timestamp": "2025-12-08T10:52:02.606537+00:00",
        "meta_object_name": "YAOGAN-22",
        "meta_object_id": "2014-063A",
        "meta_epoch": "2025-12-07T22:00:08.226432",
        "meta_mean_motion": 13.15522439,
        "meta_eccentricity": 0.00059186,
        "meta_inclination": 100.7419,
        "meta_ra_of_asc_node": 125.2682,
        "meta_arg_of_pericenter": 259.8857,
        "meta_mean_anomaly": 100.1586,
        "meta_ephemeris_type": 0,
        "meta_classification_type": "U",
        "meta_norad_cat_id": 40275,
        "meta_element_set_no": 999,
        "meta_rev_at_epoch": 53466,
        "meta_bstar": 6.8157695e-05,
        "meta_mean_motion_dot": -2.1e-07,
        "meta_mean_motion_ddot": 0,
        "tle_line1": "1 40275U 14063A   25341.91676188 -.00000021  00000+0  68158-4 0  9998",
        "tle_line2": "2 40275 100.7419 125.2682 0005918 259.8857 100.1586 13.15522439534665"
      },
      "geometry": {
        "type": "Point",
        "coordinates": [
          122.45764501898735,
          17.129499995954546
        ]
      }
    },
    {
      "type": "Feature",
      "properties": {
        "norad_id": 40298,
        "name": "ASNARO",
        "group": "resource",
        "lat": -30.971045112313888,
        "lon": 62.95724519939549,
        "alt_km": 517.4588490732849,
        "timestamp": "2025-12-08T10:52:02.606547+00:00",
        "meta_object_name": "ASNARO",
        "meta_object_id": "2014-070A",
        "meta_epoch": "2025-12-07T22:21:35.059392",
        "meta_mean_motion": 15.1934264,
        "meta_eccentricity": 0.00053908,
        "meta_inclination": 97.3655,
        "meta_ra_of_asc_node": 57.9963,
        "meta_arg_of_pericenter": 135.2626,
        "meta_mean_anomaly": 224.9044,
        "meta_ephemeris_type": 0,
        "meta_classification_type": "U",
        "meta_norad_cat_id": 40298,
        "meta_element_set_no": 999,
        "meta_rev_at_epoch": 61496,
        "meta_bstar": 0.00064936912,
        "meta_mean_motion_dot": 0.00013676,
        "meta_mean_motion_ddot": 0,
        "tle_line1": "1 40298U 14070A   25341.93165578  .00013676  00000+0  64937-3 0  9998",
        "tle_line2": "2 40298  97.3655  57.9963 0005390 135.2626 224.9044 15.19342640614967"
      },
      "geometry": {
        "type": "Point",
        "coordinates": [
          62.95724519939549,
          -30.971045112313888
        ]
      }
    },
    {
      "type": "Feature",
      "properties": {
        "norad_id": 40310,
        "name": "YAOGAN-24",
        "group": "resource",
        "lat": -66.41876433613466,
        "lon": -85.57481968675533,
        "alt_km": 649.8399267939594,
        "timestamp": "2025-12-08T10:52:02.606558+00:00",
        "meta_object_name": "YAOGAN-24",
        "meta_object_id": "2014-072A",
        "meta_epoch": "2025-12-07T22:21:42.393024",
        "meta_mean_motion": 14.76160707,
        "meta_eccentricity": 0.00145272,
        "meta_inclination": 98.1225,
        "meta_ra_of_asc_node": 112.9997,
        "meta_arg_of_pericenter": 152.9186,
        "meta_mean_anomaly": 207.2784,
        "meta_ephemeris_type": 0,
        "meta_classification_type": "U",
        "meta_norad_cat_id": 40310,
        "meta_element_set_no": 999,
        "meta_rev_at_epoch": 59550,
        "meta_bstar": 0.00024422404,
        "meta_mean_motion_dot": 1.638e-05,
        "meta_mean_motion_ddot": 0,
        "tle_line1": "1 40310U 14072A   25341.93174066  .00001638  00000+0  24422-3 0  9997",
        "tle_line2": "2 40310  98.1225 112.9997 0014527 152.9186 207.2784 14.76160707595509"
      },
      "geometry": {
        "type": "Point",
        "coordinates": [
          -85.57481968675533,
          -66.41876433613466
        ]
      }
    },
    {
      "type": "Feature",
      "properties": {
        "norad_id": 40336,
        "name": "CBERS 4",
        "group": "resource",
        "lat": -72.54199312764428,
        "lon": -167.15663659823173,
        "alt_km": 781.4408317015368,
        "timestamp": "2025-12-08T10:52:02.606568+00:00",
        "meta_object_name": "CBERS 4",
        "meta_object_id": "2014-079A",
        "meta_epoch": "2025-12-07T21:58:30.885600",
        "meta_mean_motion": 14.35514867,
        "meta_eccentricity": 0.00015401,
        "meta_inclination": 98.3317,
        "meta_ra_of_asc_node": 40.0975,
        "meta_arg_of_pericenter": 119.894,
        "meta_mean_anomaly": 240.2399,
        "meta_ephemeris_type": 0,
        "meta_classification_type": "U",
        "meta_norad_cat_id": 40336,
        "meta_element_set_no": 999,
        "meta_rev_at_epoch": 57651,
        "meta_bstar": 0.0001036317,
        "meta_mean_motion_dot": 2.56e-06,
        "meta_mean_motion_ddot": 0,
        "tle_line1": "1 40336U 14079A   25341.91563525  .00000256  00000+0  10363-3 0  9996",
        "tle_line2": "2 40336  98.3317  40.0975 0001540 119.8940 240.2399 14.35514867576513"
      },
      "geometry": {
        "type": "Point",
        "coordinates": [
          -167.15663659823173,
          -72.54199312764428
        ]
      }
    }
  ]
}